YAM-7                   
1 60504U 24149AN  26068.71799904  .00009009  00000+0  30984-3 0  9997
2 60504  97.3828 149.4631 0001973 296.5121  63.5918 15.30304554 86835
STARLINK-35118          
1 66858U 25281L   26067.18085412  .00039094  00000+0  14204-2 0  9998
2 66858  43.0039 352.0942 0001601 279.6952  80.3719 15.27631687 15951
